{
  "residences": [
    {
      "zipCode": "12",
      "number": "2",
      "latitude": "12",
      "longitude": "121",
      "numberOfResidences": "21",
      "id": 1
    },
    {
      "zipCode": "12",
      "number": "2",
      "latitude": "12",
      "longitude": "121",
      "numberOfResidences": "21",
      "id": 2
    },
    {
      "zipCode": "12121",
      "number": "21",
      "latitude": "21",
      "longitude": "2",
      "numberOfResidences": "121",
      "id": 3
    },
    {
      "zipCode": "12121",
      "number": "21",
      "latitude": "21",
      "longitude": "2",
      "numberOfResidences": "121",
      "id": 4
    },
    {
      "zipCode": "12",
      "number": "21",
      "latitude": "21",
      "longitude": "21",
      "numberOfResidences": "21",
      "id": 5
    },
    {
      "zipCode": "12",
      "number": "21",
      "latitude": "21",
      "longitude": "21",
      "numberOfResidences": "21",
      "id": 6
    },
    {
      "zipCode": "12",
      "number": "2",
      "latitude": "121",
      "longitude": "21",
      "numberOfResidences": "21",
      "id": 7
    },
    {
      "zipCode": "12",
      "number": "2",
      "latitude": "121",
      "longitude": "21",
      "numberOfResidences": "21",
      "id": 8
    },
    {
      "zipCode": "121",
      "number": "21",
      "latitude": "2",
      "longitude": "12",
      "numberOfResidences": "121",
      "id": 9
    },
    {
      "zipCode": "121",
      "number": "21",
      "latitude": "2",
      "longitude": "12",
      "numberOfResidences": "121",
      "id": 10
    },
    {
      "zipCode": "121",
      "number": "21",
      "latitude": "2",
      "longitude": "12",
      "numberOfResidences": "121",
      "id": 11
    },
    {
      "zipCode": "1",
      "number": "21",
      "latitude": "2",
      "longitude": "12",
      "numberOfResidences": "121",
      "id": 12
    },
    {
      "zipCode": "12",
      "number": "2",
      "latitude": "121",
      "longitude": "21",
      "numberOfResidences": "21",
      "id": 13
    },
    {
      "zipCode": "12",
      "number": "2",
      "latitude": "12",
      "longitude": "12",
      "numberOfResidences": "121",
      "id": 14
    },
    {
      "zipCode": "12",
      "number": "2",
      "latitude": "12",
      "longitude": "12",
      "numberOfResidences": "121",
      "id": 15
    },
    {
      "zipCode": "12",
      "number": "2",
      "latitude": "12",
      "longitude": "12",
      "numberOfResidences": "121",
      "id": 16
    },
    {
      "zipCode": "12",
      "number": "21",
      "latitude": "2",
      "longitude": "121",
      "numberOfResidences": "21",
      "id": 17
    },
    {
      "zipCode": "12",
      "number": "11",
      "latitude": "2",
      "longitude": "11",
      "numberOfResidences": "22",
      "id": 18
    },
    {
      "zipCode": "12",
      "number": "11",
      "latitude": "2",
      "longitude": "11",
      "numberOfResidences": "22",
      "id": 19
    },
    {
      "zipCode": "11",
      "number": "2",
      "latitude": "121",
      "longitude": "2",
      "numberOfResidences": "21",
      "id": 20
    },
    {
      "zipCode": "11",
      "number": "1",
      "latitude": "1",
      "longitude": "1",
      "numberOfResidences": "1",
      "id": 21
    }
  ]
}